{
  "type": "FeatureCollection",
  "features": [
    {
      "type": "Feature",
      "properties": {
        "norad_id": 44794,
        "name": "BEIDOU-3 M21 (C43)",
        "group": "beidou",
        "lat": -21.085745178704766,
        "lon": -70.41693890736647,
        "alt_km": 21521.873417047944,
        "timestamp": "2025-12-27T21:25:02.779213+00:00",
        "meta_object_name": "BEIDOU-3 M21 (C43)",
        "meta_object_id": "2019-078B",
        "meta_epoch": "2025-12-25T05:55:32.884896",
        "meta_mean_motion": 1.86227898,
        "meta_eccentricity": 0.0004304,
        "meta_inclination": 54.0703,
        "meta_ra_of_asc_node": 305.9129,
        "meta_arg_of_pericenter": 12.6939,
        "meta_mean_anomaly": 347.3266,
        "meta_ephemeris_type": 0,
        "meta_classification_type": "U",
        "meta_norad_cat_id": 44794,
        "meta_element_set_no": 999,
        "meta_rev_at_epoch": 4141,
        "meta_bstar": 0,
        "meta_mean_motion_dot": -5.3e-07,
        "meta_mean_motion_ddot": 0,
        "tle_line1": "1 44794U 19078B   25359.24690839 -.00000053  00000+0  00000+0 0  9995",
        "tle_line2": "2 44794  54.0703 305.9129 0004304  12.6939 347.3266  1.86227898 41411"
      },
      "geometry": {
        "type": "Point",
        "coordinates": [
          -70.41693890736647,
          -21.085745178704766
        ]
      }
    },
    {
      "type": "Feature",
      "properties": {
        "norad_id": 44864,
        "name": "BEIDOU-3 M19 (C41)",
        "group": "beidou",
        "lat": 8.845781882210423,
        "lon": -117.45600607022828,
        "alt_km": 21549.72393113069,
        "timestamp": "2025-12-27T21:25:02.779226+00:00",
        "meta_object_name": "BEIDOU-3 M19 (C41)",
        "meta_object_id": "2019-090A",
        "meta_epoch": "2025-12-27T02:26:46.358016",
        "meta_mean_motion": 1.86231443,
        "meta_eccentricity": 0.0018509,
        "meta_inclination": 56.4046,
        "meta_ra_of_asc_node": 68.4857,
        "meta_arg_of_pericenter": 285.4212,
        "meta_mean_anomaly": 74.1614,
        "meta_ephemeris_type": 0,
        "meta_classification_type": "U",
        "meta_norad_cat_id": 44864,
        "meta_element_set_no": 999,
        "meta_rev_at_epoch": 4102,
        "meta_bstar": 0,
        "meta_mean_motion_dot": -3.5e-07,
        "meta_mean_motion_ddot": 0,
        "tle_line1": "1 44864U 19090A   25361.10192544 -.00000035  00000+0  00000+0 0  9995",
        "tle_line2": "2 44864  56.4046  68.4857 0018509 285.4212  74.1614  1.86231443 41020"
      },
      "geometry": {
        "type": "Point",
        "coordinates": [
          -117.45600607022828,
          8.845781882210423
        ]
      }
    },
    {
      "type": "Feature",
      "properties": {
        "norad_id": 44865,
        "name": "BEIDOU-3 M20 (C42)",
        "group": "beidou",
        "lat": -54.87693466242315,
        "lon": -40.79735950603245,
        "alt_km": 21499.66594324222,
        "timestamp": "2025-12-27T21:25:02.779238+00:00",
        "meta_object_name": "BEIDOU-3 M20 (C42)",
        "meta_object_id": "2019-090B",
        "meta_epoch": "2025-12-27T12:01:33.425184",
        "meta_mean_motion": 1.86231363,
        "meta_eccentricity": 0.0015689,
        "meta_inclination": 56.4065,
        "meta_ra_of_asc_node": 68.5068,
        "meta_arg_of_pericenter": 297.5261,
        "meta_mean_anomaly": 59.2827,
        "meta_ephemeris_type": 0,
        "meta_classification_type": "U",
        "meta_norad_cat_id": 44865,
        "meta_element_set_no": 999,
        "meta_rev_at_epoch": 4101,
        "meta_bstar": 0,
        "meta_mean_motion_dot": -3.8e-07,
        "meta_mean_motion_ddot": 0,
        "tle_line1": "1 44865U 19090B   25361.50108131 -.00000038  00000+0  00000+0 0  9992",
        "tle_line2": "2 44865  56.4065  68.5068 0015689 297.5261  59.2827  1.86231363 41011"
      },
      "geometry": {
        "type": "Point",
        "coordinates": [
          -40.79735950603245,
          -54.87693466242315
        ]
      }
    },
    {
      "type": "Feature",
      "properties": {
        "norad_id": 45344,
        "name": "BEIDOU-3 G2 (C60)",
        "group": "beidou",
        "lat": 2.5318696504262133,
        "lon": 137.90585147240193,
        "alt_km": 35793.1870677425,
        "timestamp": "2025-12-27T21:25:02.779250+00:00",
        "meta_object_name": "BEIDOU-3 G2 (C60)",
        "meta_object_id": "2020-017A",
        "meta_epoch": "2025-12-27T09:57:30.305376",
        "meta_mean_motion": 1.00271727,
        "meta_eccentricity": 0.0002185,
        "meta_inclination": 2.5226,
        "meta_ra_of_asc_node": 44.1676,
        "meta_arg_of_pericenter": 236.9543,
        "meta_mean_anomaly": 44.4455,
        "meta_ephemeris_type": 0,
        "meta_classification_type": "U",
        "meta_norad_cat_id": 45344,
        "meta_element_set_no": 999,
        "meta_rev_at_epoch": 2153,
        "meta_bstar": 0,
        "meta_mean_motion_dot": -1.19e-06,
        "meta_mean_motion_ddot": 0,
        "tle_line1": "1 45344U 20017A   25361.41493409 -.00000119  00000+0  00000+0 0  9991",
        "tle_line2": "2 45344   2.5226  44.1676 0002185 236.9543  44.4455  1.00271727 21539"
      },
      "geometry": {
        "type": "Point",
        "coordinates": [
          137.90585147240193,
          2.5318696504262133
        ]
      }
    },
    {
      "type": "Feature",
      "properties": {
        "norad_id": 45807,
        "name": "BEIDOU-3 G3 (C61)",
        "group": "beidou",
        "lat": 1.9902225417537676,
        "lon": 168.39304568384662,
        "alt_km": 35812.16642009535,
        "timestamp": "2025-12-27T21:25:02.779263+00:00",
        "meta_object_name": "BEIDOU-3 G3 (C61)",
        "meta_object_id": "2020-040A",
        "meta_epoch": "2025-12-27T06:40:41.652768",
        "meta_mean_motion": 1.00266195,
        "meta_eccentricity": 0.0006581,
        "meta_inclination": 2.0241,
        "meta_ra_of_asc_node": 66.7054,
        "meta_arg_of_pericenter": 308.3364,
        "meta_mean_anomaly": 291.6349,
        "meta_ephemeris_type": 0,
        "meta_classification_type": "U",
        "meta_norad_cat_id": 45807,
        "meta_element_set_no": 999,
        "meta_rev_at_epoch": 2034,
        "meta_bstar": 0,
        "meta_mean_motion_dot": -3.32e-06,
        "meta_mean_motion_ddot": 0,
        "tle_line1": "1 45807U 20040A   25361.27825987 -.00000332  00000+0  00000+0 0  9992",
        "tle_line2": "2 45807   2.0241  66.7054 0006581 308.3364 291.6349  1.00266195 20343"
      },
      "geometry": {
        "type": "Point",
        "coordinates": [
          168.39304568384662,
          1.9902225417537676
        ]
      }
    },
    {
      "type": "Feature",
      "properties": {
        "norad_id": 56564,
        "name": "BEIDOU-3 G4 (C62)",
        "group": "beidou",
        "lat": -0.7911791032955537,
        "lon": -142.06622224274963,
        "alt_km": 35778.956495714796,
        "timestamp": "2025-12-27T21:25:02.779275+00:00",
        "meta_object_name": "BEIDOU-3 G4 (C62)",
        "meta_object_id": "2023-066A",
        "meta_epoch": "2025-12-27T13:39:33.878304",
        "meta_mean_motion": 1.00270462,
        "meta_eccentricity": 0.0002481,
        "meta_inclination": 0.7842,
        "meta_ra_of_asc_node": 303.2168,
        "meta_arg_of_pericenter": 231.6428,
        "meta_mean_anomaly": 286.3758,
        "meta_ephemeris_type": 0,
        "meta_classification_type": "U",
        "meta_norad_cat_id": 56564,
        "meta_element_set_no": 999,
        "meta_rev_at_epoch": 967,
        "meta_bstar": 0,
        "meta_mean_motion_dot": -8.8e-07,
        "meta_mean_motion_ddot": 0,
        "tle_line1": "1 56564U 23066A   25361.56914211 -.00000088  00000+0  00000+0 0  9994",
        "tle_line2": "2 56564   0.7842 303.2168 0002481 231.6428 286.3758  1.00270462  9676"
      },
      "geometry": {
        "type": "Point",
        "coordinates": [
          -142.06622224274963,
          -0.7911791032955537
        ]
      }
    },
    {
      "type": "Feature",
      "properties": {
        "norad_id": 58654,
        "name": "BEIDOU-3 M28 (C50)",
        "group": "beidou",
        "lat": -54.03386661075004,
        "lon": -2.490432712886532,
        "alt_km": 21525.771223369007,
        "timestamp": "2025-12-27T21:25:02.779287+00:00",
        "meta_object_name": "BEIDOU-3 M28 (C50)",
        "meta_object_id": "2023-207A",
        "meta_epoch": "2025-12-26T09:34:30.666720",
        "meta_mean_motion": 1.86229622,
        "meta_eccentricity": 0.0002968,
        "meta_inclination": 55.596,
        "meta_ra_of_asc_node": 68.1388,
        "meta_arg_of_pericenter": 276.5456,
        "meta_mean_anomaly": 83.472,
        "meta_ephemeris_type": 0,
        "meta_classification_type": "U",
        "meta_norad_cat_id": 58654,
        "meta_element_set_no": 999,
        "meta_rev_at_epoch": 1362,
        "meta_bstar": 0,
        "meta_mean_motion_dot": -3.3e-07,
        "meta_mean_motion_ddot": 0,
        "tle_line1": "1 58654U 23207A   25360.39896605 -.00000033  00000+0  00000+0 0  9999",
        "tle_line2": "2 58654  55.5960  68.1388 0002968 276.5456  83.4720  1.86229622 13628"
      },
      "geometry": {
        "type": "Point",
        "coordinates": [
          -2.490432712886532,
          -54.03386661075004
        ]
      }
    }
  ]
}